ONEWEB-0317             
1 49103U 21075AE  24110.60678267 -.00000078  00000+0 -25178-3 0  9994
2 49103  87.8955 147.6612 0002091 101.2398 258.8965 13.12442090131750
ONEWEB-0318             
1 49104U 21075AF  24110.57186821  .00000021  00000+0  19801-4 0  9994
2 49104  87.9131 132.4413 0002136  83.2442 276.8933 13.18687115133233
ONEWEB-0319             
1 49105U 21075AG  24110.65232890  .00000069  00000+0  14425-3 0  9990
2 49105  87.9208 162.8035 0002459  85.2279 274.9133 13.17650594129768
ONEWEB-0323             
1 49106U 21075AH  24110.59726240 -.00000330  00000+0 -95282-3 0  9994
2 49106  87.8955 147.6503 0002179  89.4336 270.7043 13.12444517131114
ONEWEB-0329             
1 49107U 21075AJ  24110.66022360  .00000018  00000+0  13194-4 0  9999
2 49107  87.9210 162.8057 0002300  96.2835 263.8558 13.17651173129742
ONEWEB-0330             
1 49108U 21075AK  24110.66180401  .00000098  00000+0  21984-3 0  9994
2 49108  87.9210 162.8053 0002385  98.6535 261.4866 13.17651734129788
ONEWEB-0292             
1 49186U 21083A   24110.95471824 -.00000119  00000+0 -36176-3 0  9998
2 49186  87.8895 117.1644 0001979  85.3613 274.7742 13.13468024127455
ONEWEB-0303             
1 49187U 21083B   24110.56869846  .00000057  00000+0  11109-3 0  9999
2 49187  87.9132 132.4413 0002112  85.8942 274.2432 13.18688612126042
